#dP2021  7 26 12  0  0.00000000      96 __u+U ITR00 EXT  IAC
## 2168 129600.00000000   900.00000000 59421 0.5000000000000
+  117   C06C07C08C09C10C11C12C13C14C16C19C20C21C22C23C24C25
+        C26C27C28C29C30C32C33C34C35C36C37C38C39C40C41C42C43
+        C44C45C46E01E02E03E04E05E07E08E09E11E12E13E14E15E18
+        E19E21E24E25E26E27E30E31E33E36G01G02G03G04G05G06G07
+        G08G09G10G11G12G13G14G15G16G17G18G19G20G21G22G23G24
+        G25G26G27G28G29G30G31G32J01J02J03R01R02R03R04R05R07
+        R08R09R11R12R13R14R15R16R17R18R19R20R21R22R24  0  0
++        10 10  9  8  9  9  8 10  8  9 10  8  7  9  8  8  9
++         7  9  9  7  9 10  9  8  8  8 10  7  9 11  8 10  9
++         8  9  8  7  8  7  8  9  8  9  6  8  8  8  9  9  7
++         7  8  7  8  9  9  7  9  7  8  7  7  6  9  6  7  8
++         7  8  8  8  6  8  7  8  8  7  7  7  9  8  7  7  8
++         6  7 11  7  7  8  8  8 10 10 10 10  8  8  8  8  9
++         8  9  9  8  8  8  8  9  7  9  9  9  8  8  6  0  0
%c M  cc GPS ccc cccc cccc cccc cccc ccccc ccccc ccccc ccccc
%c cc cc ccc ccc cccc cccc cccc cccc ccccc ccccc ccccc ccccc
%f  0.0000000  0.000000000  0.00000000000  0.000000000000000
%f  0.0000000  0.000000000  0.00000000000  0.000000000000000
%i    0    0    0    0      0      0      0      0         0
%i    0    0    0    0      0      0      0      0         0
/* IAC                                ULTRA-RAPID PREDICTION
/* S/V CLOCKS ARE ALIGNED TO GNSS TIME                      
/* G:C1WC2W R:C1PC2P E:C1XC5X C:C2IC6I J:C1CC2S             
/* PCV:IGS14_2163 OL/AL:FES2004  NONE     YN ORB:CoN CLK:CoN
*  2021 07 27 11  0  0.00000000
PC06  -6500.412811  33772.040976  25213.802540    677.958526
PC07 -18343.824142  23307.857409 -29830.227094     76.473632
PC08 -21954.887944  35171.628933   6541.873589   -910.589367
PC09   3573.243149  40218.393945  13229.238126    342.479144
PC10  -3869.262124  26260.991268 -32534.777039    -14.513949
PC11  16604.146472   7670.816830  21116.322079    481.967421
PC12  12580.317091  23562.538783   8059.338903    799.194156
PC13 -11576.924570  35975.775371  18523.213911    351.769193
PC14  27354.108395   5246.159158  -1062.055588    770.426509
PC16  -4277.786606  34610.182667  23991.359015   -894.302985
PC19 -25877.084346   1662.056827  10366.047315    924.432851
PC20 -25166.097606 -10153.766463  -6567.044337   -833.983311
PC21   9230.026698  16540.723928  20499.383398   -937.168053
PC22 -11660.195384  12878.318304  21846.286316   -948.783823
PC23  16425.160900 -22148.557324   4293.257447   -965.592004
PC24  14886.776891   7542.026810 -22366.530477   -959.942122
PC25  22137.915753 -11634.229913 -12401.276739   -879.542649
PC26    261.779198  20314.952252 -19120.113797    872.925177
PC27  -7264.143256 -26917.824578   1003.973919    571.103371
PC28   5910.652677 -21334.159083  16994.564901    -45.694870
PC29 -15468.801506   3805.480449 -22923.540592    425.130398
PC30 -16628.626494 -16592.260659 -15060.202925    475.447563
PC32  -9367.832529 -16473.751555 -20475.272224   -926.536295
PC33  25881.160498  -1746.527205 -10258.830854   -947.968345
PC34  16777.626638  15950.348674  15583.129680   -618.718728
PC35  -5479.250313  21289.221720 -17217.134050   -167.860316
PC36 -22393.653355  10753.639161  12748.745555   -736.680552
PC37   1101.010039 -20776.600488  18628.446401   -862.856231
PC38 -20143.169386  36157.390305   7607.455918    164.499176
PC39  -1594.454343  34910.145872  23717.507077     32.639687
PC40  -8778.383122  21122.469986 -35401.531456    184.516923
PC41  11954.192929 -12789.359009 -21685.098271   -967.465764
PC42  24728.380460  10621.221000   7383.286360   -924.234843
PC43  15773.368127  -3127.795130  22796.710652   -840.292413
PC44   8016.423291  26717.701504  -1245.908455    310.447627
PC45 -16318.199538  22187.448803  -4428.497018    504.530263
PC46 -15539.944542  -6465.351793  22267.495421    159.925866
PE01 -17210.191906  17727.040488 -16295.218186  -1158.876902
PE02  17084.236788 -17762.548360  16406.320677    235.772282
PE03   5801.904854 -16933.111436 -23576.358761   -457.159451
PE04  12943.587904  23159.425016  13129.932890   -822.152066
PE05  21476.616584   -641.486922 -20353.391054   -261.960629
PE07 -24454.667344 -15821.861324   5322.855625   -566.605995
PE08 -13421.009371 -23031.810773 -12880.931610   5963.756037
PE09  24528.757278  15608.058143  -5504.581386   5586.477074
PE11  13625.712330  11558.412866  23585.212980   5662.174514
PE12   2381.911185  27451.735835  10820.795494   5090.449696
PE13 -13426.883477 -11973.416091 -23509.216867    419.536924
PE14 -16425.996285 -23836.625618    882.257794  -1514.614849
PE15  -2467.644179 -27418.130279 -10880.246951    801.253458
PE18   4934.589578  24817.775988 -12380.737734  -1660.428442
PE19  -7961.162392  15291.333765  24069.485475    337.195907
PE21 -28021.217057   9524.989943    619.386052   -678.576359
PE24  22512.360106   5383.558514 -18464.291497  -1030.255113
PE25  28054.241186  -9403.306788   -805.752764   -541.309272
PE26 -16551.001830  11344.465849 -21763.076932   1531.363142
PE27 -23130.225327  -4601.282901  17895.476456    -84.714801
PE30  -3427.601372 -16360.097990  24426.521419   2750.622474
PE31   4681.872423  15905.304243 -24507.717101   -483.720678
PE33  -9921.764493  26679.661031  -8128.597621   -467.104775
PE36  16451.324694 -10472.417282  22262.343697   -240.112050
PG01  13843.422956 -20823.594600   8155.310280    615.709852
PG02 -15147.635041   -609.414125 -21166.262595   -622.402083
PG03  19862.083823 -12163.239488 -12755.117334   -233.700271
PG04   8606.849091 -13261.705120 -21327.128620   -203.099078
PG05 -25839.529235   6337.389775   1428.087436    -49.197041
PG06  -9687.156986 -13373.531153 -20730.521843     46.329875
PG07   5060.328555 -25182.107388   5997.577532    211.863550
PG08  16267.173450  -3076.619805  20822.027966    -30.322919
PG09  -2373.764477 -20754.584241 -16452.512937   -356.957037
PG10  11112.776961  12553.624029  20781.137246   -170.337976
PG11 -15357.546058  -2573.890570 -21532.595639     24.453862
PG12 -20774.547617  10683.906725 -12761.040648    -74.411476
PG13 -18428.990023  -6084.300598  18061.589945    163.192167
PG14 -10992.800537 -13100.635693  20329.485696     37.651250
PG15 -16154.737397   5313.671015  20100.698451   -132.628513
PG16  26490.813386    911.132398  -4257.405982   -363.840000
PG17 -12344.419193 -23000.857587   5306.192580    480.131094
PG18  -3922.892833  24931.963683   8126.641508    337.893777
PG19 -17003.328006 -20022.424871  -4705.183185     31.739226
PG20 -24251.065348   -261.921603 -10547.035537    519.972374
PG21  15927.505444 -14345.483753  16037.286174    133.747088
PG22  23925.516913 -10156.055620  -4741.737896   -553.243270
PG23  -2016.082082  15509.505434  21436.042225     78.950756
PG24 -14835.572463  17710.276751  12490.836959    189.027351
PG25 -10049.488324  15414.016303 -19317.634092    180.749044
PG26  21701.715075   6031.922048 -14342.721390    115.543512
PG27  20100.173712   7786.906251  15577.570613   -169.238659
PG28 -16301.557370 -11245.331177  18154.115942    530.642340
PG29   -472.529774  19767.928498 -17751.008379   -386.782187
PG30  -4194.800335 -20842.292506  15841.066313   -455.510851
PG31  11463.754215  11415.335544 -21071.117643   -130.941960
PG32  15777.665248  21374.630683   2289.348729     11.693507
PJ01 -27754.913137  21283.132291  28609.629689   -425.018920
PJ02 -36288.370162  19547.389634  -4468.241187     -1.072872
PJ03 -19000.824079  27003.124858 -21557.587815     -0.372268
PR01 -13259.776126   5585.957965  21068.202385     82.928559
PR02   7680.712953  13705.630634  20156.552144    487.594570
PR03  21314.083735  12486.454358   6511.297657     40.256396
PR04  22754.872031   4385.603064 -10641.253295     97.649870
PR05  11611.783542  -6111.537783 -21867.477264     76.087806
PR07 -21596.899500 -12236.254389  -5739.159528    -41.865815
PR08 -22741.554594  -4188.399661  10800.051207    -60.103338
PR09   4590.976284 -15728.159176  19543.712860      5.040270
PR11 -20491.317750   8249.430602  12784.885637     45.188124
PR12 -18328.524547  16956.163537  -5149.561488    248.720847
PR13  -5512.701705  15875.129873 -19200.918833    -58.327643
PR14  11230.573445   5019.424531 -22325.079816     66.974190
PR15  20774.473465  -8331.157183 -12203.322789    102.462763
PR16  17370.795183 -17693.596385   6242.836696    -18.541718
PR17   9170.954369  18061.221523  15475.634631    444.643829
PR18  10611.557928   1342.009407  23166.808497     84.864586
PR19   7218.455850 -15292.075369  19093.906282   -153.099501
PR20  -1336.444723 -25396.126891   1720.753456    -53.152518
PR21  -9361.798269 -17139.773518 -16435.101342   -226.976163
PR22 -10461.748806   -123.371055 -23281.996508   -124.768510
PR24   2094.697672  25393.521329   -962.837643     52.143441
EOF
